COMMENT,ORIGINATOR,NORAD_CAT_ID,OBJECT_NAME,OBJECT_TYPE,CLASSIFICATION_TYPE,INTLDES,EPOCH,EPOCH_MICROSECONDS,MEAN_MOTION,ECCENTRICITY,INCLINATION,RA_OF_ASC_NODE,ARG_OF_PERICENTER,MEAN_ANOMALY,EPHEMERIS_TYPE,ELEMENT_SET_NO,REV_AT_EPOCH,BSTAR,MEAN_MOTION_DOT,MEAN_MOTION_DDOT,FILE,TLE_LINE0,TLE_LINE1,TLE_LINE2,OBJECT_ID,OBJECT_NUMBER,SEMIMAJOR_AXIS,PERIOD,APOGEE,PERIGEE,DECAYED
"GENERATED VIA SPACETRACK.ORG API","18 SPCS","48893","SPACEBEE-106","PAYLOAD","U","21059Q","2023-07-14 09:07:01","105824","15.3283124","0.0007304","97.5988","333.116","174.2573","185.8754","0","999","11355","0.0010196","0.00032375","0","3957453","0 SPACEBEE-106","1 48893U 21059Q   23195.37987391  .00032375  00000-0  10196-2 0  9995","2 48893  97.5988 333.1160 0007304 174.2573 185.8754 15.32831240113552","2021-059Q","48893","6845.507","93.944","472.372","462.372","0"
"GENERATED VIA SPACETRACK.ORG API","18 SPCS","48893","SPACEBEE-106","PAYLOAD","U","21059Q","2023-07-15 08:37:02","968896","15.32904394","0.0007297","97.5989","334.1215","171.1499","188.9873","0","999","11370","0.0011724","0.00037349","0","3958452","0 SPACEBEE-106","1 48893U 21059Q   23196.35906214  .00037349  00000-0  11724-2 0  9993","2 48893  97.5989 334.1215 0007297 171.1499 188.9873 15.32904394113703","2021-059Q","48893","6845.289","93.939","472.149","462.159","0"
"GENERATED VIA SPACETRACK.ORG API","18 SPCS","48893","SPACEBEE-106","PAYLOAD","U","21059Q","2023-07-16 08:07:01","121952","15.32964406","0.0007277","97.5991","335.1269","168.2319","191.9094","0","999","11385","0.00091848","0.00029266","0","3959309","0 SPACEBEE-106","1 48893U 21059Q   23197.33820743  .00029266  00000-0  91848-3 0  9999","2 48893  97.5991 335.1269 0007277 168.2319 191.9094 15.32964406113857","2021-059Q","48893","6845.110","93.936","471.957","461.994","0"
"GENERATED VIA SPACETRACK.ORG API","18 SPCS","48893","SPACEBEE-106","PAYLOAD","U","21059Q","2023-07-17 07:36:55","863072","15.33034431","0.0007287","97.5995","336.1325","164.8435","195.3026","0","999","11400","0.0012196","0.00039023","0","3960124","0 SPACEBEE-106","1 48893U 21059Q   23198.31731323  .00039023  00000-0  12196-2 0  9993","2 48893  97.5995 336.1325 0007287 164.8435 195.3026 15.33034431114005","2021-059Q","48893","6844.902","93.931","471.755","461.779","0"
"GENERATED VIA SPACETRACK.ORG API","18 SPCS","48893","SPACEBEE-106","PAYLOAD","U","21059Q","2023-07-18 08:40:45","848064","15.33116502","0.0007293","97.5997","337.2054","161.4371","198.7138","0","999","11416","0.001356","0.00043534","0","3961088","0 SPACEBEE-106","1 48893U 21059Q   23199.36164176  .00043534  00000-0  13560-2 0  9993","2 48893  97.5997 337.2054 0007293 161.4371 198.7138 15.33116502114165","2021-059Q","48893","6844.658","93.926","471.515","461.531","0"
"GENERATED VIA SPACETRACK.ORG API","18 SPCS","48893","SPACEBEE-106","PAYLOAD","U","21059Q","2023-07-18 19:38:39","945696","15.33147099","0.0007274","97.6","337.6747","160.3077","199.8447","0","999","11423","0.0011064","0.00035502","0","3961624","0 SPACEBEE-106","1 48893U 21059Q   23199.81851789  .00035502  00000-0  11064-2 0  9999","2 48893  97.6000 337.6747 0007274 160.3077 199.8447 15.33147099114232","2021-059Q","48893","6844.567","93.924","471.410","461.453","0"
"GENERATED VIA SPACETRACK.ORG API","18 SPCS","48893","SPACEBEE-106","PAYLOAD","U","21059Q","2023-07-19 19:08:24","682560","15.33211419","0.0007229","97.6004","338.6808","157.2126","202.9438","0","999","11438","0.0010516","0.000338","0","3962702","0 SPACEBEE-106","1 48893U 21059Q   23200.79750790  .00033800  00000-0  10516-2 0  9999","2 48893  97.6004 338.6808 0007229 157.2126 202.9438 15.33211419114385","2021-059Q","48893","6844.375","93.921","471.188","461.292","0"
"GENERATED VIA SPACETRACK.ORG API","18 SPCS","48893","SPACEBEE-106","PAYLOAD","U","21059Q","2023-07-20 21:46:03","215424","15.33281869","0.0007207","97.6007","339.8212","153.538","206.6231","0","999","11455","0.0010138","0.00032649","0","3963404","0 SPACEBEE-106","1 48893U 21059Q   23201.90698166  .00032649  00000-0  10138-2 0  9991","2 48893  97.6007 339.8212 0007207 153.5380 206.6231 15.33281869114554","2021-059Q","48893","6844.166","93.916","470.963","461.098","0"
"GENERATED VIA SPACETRACK.ORG API","18 SPCS","48893","SPACEBEE-106","PAYLOAD","U","21059Q","2023-07-23 07:42:59","912928","15.33454829","0.0007106","97.6008","342.3035","146.2726","213.8969","0","999","11492","0.0010685","0.00034611","0","3963756","0 SPACEBEE-106","1 48893U 21059Q   23204.32152677  .00034611  00000-0  10685-2 0  9990","2 48893  97.6008 342.3035 0007106 146.2726 213.8969 15.33454829114925","2021-059Q","48893","6843.651","93.906","470.379","460.653","0"
"GENERATED VIA SPACETRACK.ORG API","18 SPCS","48893","SPACEBEE-106","PAYLOAD","U","21059Q","2023-07-25 08:15:48","835872","15.33595277","0.0007032","97.6004","344.3836","140.2318","219.9441","0","999","11523","0.0010521","0.00034228","0","3963759","0 SPACEBEE-106","1 48893U 21059Q   23206.34431523  .00034228  00000-0  10521-2 0  9997","2 48893  97.6004 344.3836 0007032 140.2318 219.9441 15.33595277115231","2021-059Q","48893","6843.233","93.897","469.910","460.286","0"
"GENERATED VIA SPACETRACK.ORG API","18 SPCS","48893","SPACEBEE-106","PAYLOAD","U","21059Q","2023-07-26 07:45:08","804448","15.33666686","0.0007019","97.6005","345.3898","137.3782","222.8006","0","999","11538","0.001239","0.00040446","0","3963761","0 SPACEBEE-106","1 48893U 21059Q   23207.32301857  .00040446  00000-0  12390-2 0  9997","2 48893  97.6005 345.3898 0007019 137.3782 222.8006 15.33666686115387","2021-059Q","48893","6843.021","93.893","469.689","460.083","0"
"GENERATED VIA SPACETRACK.ORG API","18 SPCS","48893","SPACEBEE-106","PAYLOAD","U","21059Q","2023-07-27 02:32:33","593568","15.33731286","0.0006951","97.6002","346.1949","134.3938","225.7874","0","999","11550","0.0012257","0.0004009","0","3964160","0 SPACEBEE-106","1 48893U 21059Q   23208.10594437  .00040090  00000-0  12257-2 0  9999","2 48893  97.6002 346.1949 0006951 134.3938 225.7874 15.33731286115502","2021-059Q","48893","6842.829","93.889","469.450","459.937","0"
"GENERATED VIA SPACETRACK.ORG API","18 SPCS","48893","SPACEBEE-106","PAYLOAD","U","21059Q","2023-07-27 02:32:33","593568","15.33731286","0.0006951","97.6002","346.1949","134.3938","225.7874","0","999","11550","0.0012257","0.0004009","0","3964647","0 SPACEBEE-106","1 48893U 21059Q   23208.10594437  .00040090  00000-0  12257-2 0  9999","2 48893  97.6002 346.1949 0006951 134.3938 225.7874 15.33731286115502","2021-059Q","48893","6842.829","93.889","469.450","459.937","0"
"GENERATED VIA SPACETRACK.ORG API","18 SPCS","48893","SPACEBEE-106","PAYLOAD","U","21059Q","2023-07-27 21:19:55","762176","15.33785942","0.0006883","97.6003","346.9999","131.7962","228.3869","0","999","11562","0.0010115","0.00033096","0","3964919","0 SPACEBEE-106","1 48893U 21059Q   23208.88883984  .00033096  00000-0  10115-2 0  9991","2 48893  97.6003 346.9999 0006883 131.7962 228.3869 15.33785942115622","2021-059Q","48893","6842.666","93.885","469.241","459.821","0"
"GENERATED VIA SPACETRACK.ORG API","18 SPCS","48893","SPACEBEE-106","PAYLOAD","U","21059Q","2023-07-27 21:19:55","762176","15.33785942","0.0006883","97.6003","346.9999","131.7962","228.3869","0","999","11562","0.0010115","0.00033096","0","3965063","0 SPACEBEE-106","1 48893U 21059Q   23208.88883984  .00033096  00000-0  10115-2 0  9991","2 48893  97.6003 346.9999 0006883 131.7962 228.3869 15.33785942115622","2021-059Q","48893","6842.666","93.885","469.241","459.821","0"
"GENERATED VIA SPACETRACK.ORG API","18 SPCS","48893","SPACEBEE-106","PAYLOAD","U","21059Q","2023-07-28 08:17:32","632512","15.33814574","0.0006838","97.6","347.4696","130.4274","229.7565","0","999","11569","0.00095298","0.00031197","0","3965518","0 SPACEBEE-106","1 48893U 21059Q   23209.34551658  .00031197  00000-0  95298-3 0  9999","2 48893  97.6000 347.4696 0006838 130.4274 229.7565 15.33814574115690","2021-059Q","48893","6842.581","93.884","469.125","459.767","0"
"GENERATED VIA SPACETRACK.ORG API","18 SPCS","48893","SPACEBEE-106","PAYLOAD","U","21059Q","2023-07-28 22:23:01","768704","15.33853704","0.0006802","97.5999","348.0733","128.1681","232.0175","0","999","11578","0.0009636","0.00031586","0","3965927","0 SPACEBEE-106","1 48893U 21059Q   23209.93265936  .00031586  00000-0  96360-3 0  9998","2 48893  97.5999 348.0733 0006802 128.1681 232.0175 15.33853704115784","2021-059Q","48893","6842.464","93.881","468.984","459.675","0"
"GENERATED VIA SPACETRACK.ORG API","18 SPCS","48893","SPACEBEE-106","PAYLOAD","U","21059Q","2023-07-29 21:52:07","206528","15.33927708","0.0006851","97.6","349.0801","125.433","234.7552","0","999","11593","0.001109","0.00036473","0","3966790","0 SPACEBEE-106","1 48893U 21059Q   23210.91119452  .00036473  00000-0  11090-2 0  9995","2 48893  97.6000 349.0801 0006851 125.4330 234.7552 15.33927708115931","2021-059Q","48893","6842.244","93.877","468.797","459.422","0"
"GENERATED VIA SPACETRACK.ORG API","18 SPCS","48893","SPACEBEE-106","PAYLOAD","U","21059Q","2023-07-31 08:18:40","108320","15.34033605","0.0006748","97.6005","350.5561","121.3197","238.8707","0","999","11615","0.0011758","0.00038815","0","3967888","0 SPACEBEE-106","1 48893U 21059Q   23212.34629755  .00038815  00000-0  11758-2 0  9999","2 48893  97.6005 350.5561 0006748 121.3197 238.8707 15.34033605116154","2021-059Q","48893","6841.929","93.870","468.411","459.178","0"
"GENERATED VIA SPACETRACK.ORG API","18 SPCS","48893","SPACEBEE-106","PAYLOAD","U","21059Q","2023-08-01 21:52:55","301088","15.34147427","0.0006704","97.6013","352.1672","115.7891","244.4044","0","999","11639","0.0010906","0.00036113","0","3969281","0 SPACEBEE-106","1 48893U 21059Q   23213.91175117  .00036113  00000-0  10906-2 0  9994","2 48893  97.6013 352.1672 0006704 115.7891 244.4044 15.34147427116395","2021-059Q","48893","6841.591","93.863","468.043","458.869","0"
